AMC-3                   
1 24936U 97050A   26032.54761593 -.00000274  00000+0  00000+0 0  9990
2 24936   7.8135  65.6366 0003337 252.5872 298.6386  1.00270600 51070
NSS-11                  
1 26554U 00059A   26032.82475286  .00000014  00000+0  00000+0 0  9994
2 26554   1.7769  83.0782 0003221 231.5666 290.2599  1.00271438 39935
AMC-6                   
1 26580U 00067A   26032.78252929  .00000079  00000+0  00000+0 0  9995
2 26580   0.0566 279.2475 0003564  16.1241 343.2348  1.00270493 92531
AMC-11                  
1 28252U 04017A   26032.89658317 -.00000059  00000+0  00000+0 0  9994
2 28252   0.0490 275.0730 0003267  39.4037  29.2603  1.00271791 79503
AMC-15                  
1 28446U 04041A   26032.89770984 -.00000098  00000+0  00000+0 0  9994
2 28446   0.0498 279.7080 0002416  33.9052  36.5869  1.00272173 77942
NSS-10                  
1 28526U 05003A   26032.91114324 -.00000263  00000+0  00000+0 0  9999
2 28526   6.1120  72.1049 0003318 246.2234 104.3224  1.00271314 51793
ASTRA 1KR               
1 29055U 06012A   26032.89836477  .00000109  00000+0  00000+0 0  9993
2 29055   0.1247  79.1694 0004842 198.7166 196.5992  1.00273554 44342
ASTRA 1L                
1 31306U 07016A   26032.91564993 -.00000160  00000+0  00000+0 0  9992
2 31306   0.9723  82.6575 0002741 250.3748 113.8375  1.00079348 43638
ASTRA 4A                
1 32299U 07057A   26032.90947442  .00000000  00000+0  00000+0 0  9994
2 32299   0.0216 290.4825 0002477  20.6621 153.1954  1.00271710 50296
AMC-21                  
1 33275U 08038B   26032.92726333  .00000041  00000+0  00000+0 0  9990
2 33275   2.5978  81.7677 0007952 340.6585  87.3400  0.99011136 64139
ASTRA 1M                
1 33436U 08057A   26032.89836477  .00000110  00000+0  00000+0 0  9994
2 33436   0.0266 340.7532 0001175 254.1447 239.7476  1.00271567 44386
NSS-9                   
1 33749U 09008A   26032.81919796  .00000061  00000+0  00000+0 0  9991
2 33749   0.9117  84.0374 0002305 219.3527 306.5706  1.00270585 62161
SES-7 (PROTOSTAR 2)     
1 34941U 09027A   26032.94000340 -.00000355  00000+0  00000+0 0  9994
2 34941   0.0178  68.3321 0002458 225.6556 284.7712  1.00269877 61279
NSS-12                  
1 36032U 09058A   26032.89280984  .00000062  00000+0  00000+0 0  9993
2 36032   0.0974 279.5526 0005184  19.7869 211.1317  1.00271428 59566
SES-1                   
1 36516U 10016A   26032.89857652  .00000000  00000+0  00000+0 0  9990
2 36516   0.0180 295.1290 0002830  26.3823  33.0820  1.00269271 57676
ASTRA 3B                
1 36581U 10021A   26032.88725214  .00000126  00000+0  00000+0 0  9994
2 36581   1.1187  85.4055 0002421 245.1926 144.3552  1.00271485 57518
SES-3                   
1 37748U 11035A   26032.61282494 -.00000112  00000+0  00000+0 0  9991
2 37748   0.9763  84.7043 0003431 235.9455 288.7570  1.00271140 53232
