[{"OBJECT_NAME":"AMC-3","OBJECT_ID":"1997-050A","EPOCH":"2026-02-01T13:08:34.016352","MEAN_MOTION":1.002706,"ECCENTRICITY":0.00033373,"INCLINATION":7.8135,"RA_OF_ASC_NODE":65.6366,"ARG_OF_PERICENTER":252.5872,"MEAN_ANOMALY":298.6386,"EPHEMERIS_TYPE":0,"CLASSIFICATION_TYPE":"U","NORAD_CAT_ID":24936,"ELEMENT_SET_NO":999,"REV_AT_EPOCH":5107,"BSTAR":0,"MEAN_MOTION_DOT":-2.74e-6,"MEAN_MOTION_DDOT":0},{"OBJECT_NAME":"NSS-11","OBJECT_ID":"2000-059A","EPOCH":"2026-02-01T19:47:38.647104","MEAN_MOTION":1.00271438,"ECCENTRICITY":0.00032219,"INCLINATION":1.7769,"RA_OF_ASC_NODE":83.0782,"ARG_OF_PERICENTER":231.5666,"MEAN_ANOMALY":290.2599,"EPHEMERIS_TYPE":0,"CLASSIFICATION_TYPE":"U","NORAD_CAT_ID":26554,"ELEMENT_SET_NO":999,"REV_AT_EPOCH":3993,"BSTAR":0,"MEAN_MOTION_DOT":1.4e-7,"MEAN_MOTION_DDOT":0},{"OBJECT_NAME":"AMC-6","OBJECT_ID":"2000-067A","EPOCH":"2026-02-01T18:46:50.530656","MEAN_MOTION":1.00270493,"ECCENTRICITY":0.00035648,"INCLINATION":0.0566,"RA_OF_ASC_NODE":279.2475,"ARG_OF_PERICENTER":16.1241,"MEAN_ANOMALY":343.2348,"EPHEMERIS_TYPE":0,"CLASSIFICATION_TYPE":"U","NORAD_CAT_ID":26580,"ELEMENT_SET_NO":999,"REV_AT_EPOCH":9253,"BSTAR":0,"MEAN_MOTION_DOT":7.9e-7,"MEAN_MOTION_DDOT":0},{"OBJECT_NAME":"AMC-11","OBJECT_ID":"2004-017A","EPOCH":"2026-02-01T21:31:04.785888","MEAN_MOTION":1.00271791,"ECCENTRICITY":0.00032679,"INCLINATION":0.049,"RA_OF_ASC_NODE":275.073,"ARG_OF_PERICENTER":39.4037,"MEAN_ANOMALY":29.2603,"EPHEMERIS_TYPE":0,"CLASSIFICATION_TYPE":"U","NORAD_CAT_ID":28252,"ELEMENT_SET_NO":999,"REV_AT_EPOCH":7950,"BSTAR":0,"MEAN_MOTION_DOT":-5.9e-7,"MEAN_MOTION_DDOT":0},{"OBJECT_NAME":"AMC-15","OBJECT_ID":"2004-041A","EPOCH":"2026-02-01T21:32:42.130176","MEAN_MOTION":1.00272173,"ECCENTRICITY":0.00024168,"INCLINATION":0.0498,"RA_OF_ASC_NODE":279.708,"ARG_OF_PERICENTER":33.9052,"MEAN_ANOMALY":36.5869,"EPHEMERIS_TYPE":0,"CLASSIFICATION_TYPE":"U","NORAD_CAT_ID":28446,"ELEMENT_SET_NO":999,"REV_AT_EPOCH":7794,"BSTAR":0,"MEAN_MOTION_DOT":-9.8e-7,"MEAN_MOTION_DDOT":0},{"OBJECT_NAME":"NSS-10","OBJECT_ID":"2005-003A","EPOCH":"2026-02-01T21:52:02.775936","MEAN_MOTION":1.00271314,"ECCENTRICITY":0.00033181,"INCLINATION":6.112,"RA_OF_ASC_NODE":72.1049,"ARG_OF_PERICENTER":246.2234,"MEAN_ANOMALY":104.3224,"EPHEMERIS_TYPE":0,"CLASSIFICATION_TYPE":"U","NORAD_CAT_ID":28526,"ELEMENT_SET_NO":999,"REV_AT_EPOCH":5179,"BSTAR":0,"MEAN_MOTION_DOT":-2.63e-6,"MEAN_MOTION_DDOT":0},{"OBJECT_NAME":"ASTRA 1KR","OBJECT_ID":"2006-012A","EPOCH":"2026-02-01T21:33:38.716128","MEAN_MOTION":1.00273554,"ECCENTRICITY":0.00048421,"INCLINATION":0.1247,"RA_OF_ASC_NODE":79.1694,"ARG_OF_PERICENTER":198.7166,"MEAN_ANOMALY":196.5992,"EPHEMERIS_TYPE":0,"CLASSIFICATION_TYPE":"U","NORAD_CAT_ID":29055,"ELEMENT_SET_NO":999,"REV_AT_EPOCH":4434,"BSTAR":0,"MEAN_MOTION_DOT":1.09e-6,"MEAN_MOTION_DDOT":0},{"OBJECT_NAME":"ASTRA 1L","OBJECT_ID":"2007-016A","EPOCH":"2026-02-01T21:58:32.153952","MEAN_MOTION":1.00079348,"ECCENTRICITY":0.00027415,"INCLINATION":0.9723,"RA_OF_ASC_NODE":82.6575,"ARG_OF_PERICENTER":250.3748,"MEAN_ANOMALY":113.8375,"EPHEMERIS_TYPE":0,"CLASSIFICATION_TYPE":"U","NORAD_CAT_ID":31306,"ELEMENT_SET_NO":999,"REV_AT_EPOCH":4363,"BSTAR":0,"MEAN_MOTION_DOT":-1.6e-6,"MEAN_MOTION_DDOT":0},{"OBJECT_NAME":"ASTRA 4A","OBJECT_ID":"2007-057A","EPOCH":"2026-02-01T21:49:38.589888","MEAN_MOTION":1.0027171,"ECCENTRICITY":0.00024771,"INCLINATION":0.0216,"RA_OF_ASC_NODE":290.4825,"ARG_OF_PERICENTER":20.6621,"MEAN_ANOMALY":153.1954,"EPHEMERIS_TYPE":0,"CLASSIFICATION_TYPE":"U","NORAD_CAT_ID":32299,"ELEMENT_SET_NO":999,"REV_AT_EPOCH":5029,"BSTAR":0,"MEAN_MOTION_DOT":0,"MEAN_MOTION_DDOT":0},{"OBJECT_NAME":"AMC-21","OBJECT_ID":"2008-038B","EPOCH":"2026-02-01T22:15:15.551712","MEAN_MOTION":0.99011136,"ECCENTRICITY":0.00079529,"INCLINATION":2.5978,"RA_OF_ASC_NODE":81.7677,"ARG_OF_PERICENTER":340.6585,"MEAN_ANOMALY":87.34,"EPHEMERIS_TYPE":0,"CLASSIFICATION_TYPE":"U","NORAD_CAT_ID":33275,"ELEMENT_SET_NO":999,"REV_AT_EPOCH":6413,"BSTAR":0,"MEAN_MOTION_DOT":4.1e-7,"MEAN_MOTION_DDOT":0},{"OBJECT_NAME":"ASTRA 1M","OBJECT_ID":"2008-057A","EPOCH":"2026-02-01T21:33:38.716128","MEAN_MOTION":1.00271567,"ECCENTRICITY":0.00011752,"INCLINATION":0.0266,"RA_OF_ASC_NODE":340.7532,"ARG_OF_PERICENTER":254.1447,"MEAN_ANOMALY":239.7476,"EPHEMERIS_TYPE":0,"CLASSIFICATION_TYPE":"U","NORAD_CAT_ID":33436,"ELEMENT_SET_NO":999,"REV_AT_EPOCH":4438,"BSTAR":0,"MEAN_MOTION_DOT":1.1e-6,"MEAN_MOTION_DDOT":0},{"OBJECT_NAME":"NSS-9","OBJECT_ID":"2009-008A","EPOCH":"2026-02-01T19:39:38.703744","MEAN_MOTION":1.00270585,"ECCENTRICITY":0.00023053,"INCLINATION":0.9117,"RA_OF_ASC_NODE":84.0374,"ARG_OF_PERICENTER":219.3527,"MEAN_ANOMALY":306.5706,"EPHEMERIS_TYPE":0,"CLASSIFICATION_TYPE":"U","NORAD_CAT_ID":33749,"ELEMENT_SET_NO":999,"REV_AT_EPOCH":6216,"BSTAR":0,"MEAN_MOTION_DOT":6.1e-7,"MEAN_MOTION_DDOT":0},{"OBJECT_NAME":"SES-7 (PROTOSTAR 2)","OBJECT_ID":"2009-027A","EPOCH":"2026-02-01T22:33:36.293760","MEAN_MOTION":1.00269877,"ECCENTRICITY":0.00024586,"INCLINATION":0.0178,"RA_OF_ASC_NODE":68.3321,"ARG_OF_PERICENTER":225.6556,"MEAN_ANOMALY":284.7712,"EPHEMERIS_TYPE":0,"CLASSIFICATION_TYPE":"U","NORAD_CAT_ID":34941,"ELEMENT_SET_NO":999,"REV_AT_EPOCH":6127,"BSTAR":0,"MEAN_MOTION_DOT":-3.55e-6,"MEAN_MOTION_DDOT":0},{"OBJECT_NAME":"NSS-12","OBJECT_ID":"2009-058A","EPOCH":"2026-02-01T21:25:38.770176","MEAN_MOTION":1.00271428,"ECCENTRICITY":0.00051845,"INCLINATION":0.0974,"RA_OF_ASC_NODE":279.5526,"ARG_OF_PERICENTER":19.7869,"MEAN_ANOMALY":211.1317,"EPHEMERIS_TYPE":0,"CLASSIFICATION_TYPE":"U","NORAD_CAT_ID":36032,"ELEMENT_SET_NO":999,"REV_AT_EPOCH":5956,"BSTAR":0,"MEAN_MOTION_DOT":6.2e-7,"MEAN_MOTION_DDOT":0},{"OBJECT_NAME":"SES-1","OBJECT_ID":"2010-016A","EPOCH":"2026-02-01T21:33:57.011328","MEAN_MOTION":1.00269271,"ECCENTRICITY":0.00028307,"INCLINATION":0.018,"RA_OF_ASC_NODE":295.129,"ARG_OF_PERICENTER":26.3823,"MEAN_ANOMALY":33.082,"EPHEMERIS_TYPE":0,"CLASSIFICATION_TYPE":"U","NORAD_CAT_ID":36516,"ELEMENT_SET_NO":999,"REV_AT_EPOCH":5767,"BSTAR":0,"MEAN_MOTION_DOT":0,"MEAN_MOTION_DDOT":0},{"OBJECT_NAME":"ASTRA 3B","OBJECT_ID":"2010-021A","EPOCH":"2026-02-01T21:17:38.584896","MEAN_MOTION":1.00271485,"ECCENTRICITY":0.0002421,"INCLINATION":1.1187,"RA_OF_ASC_NODE":85.4055,"ARG_OF_PERICENTER":245.1926,"MEAN_ANOMALY":144.3552,"EPHEMERIS_TYPE":0,"CLASSIFICATION_TYPE":"U","NORAD_CAT_ID":36581,"ELEMENT_SET_NO":999,"REV_AT_EPOCH":5751,"BSTAR":0,"MEAN_MOTION_DOT":1.26e-6,"MEAN_MOTION_DDOT":0},{"OBJECT_NAME":"SES-3","OBJECT_ID":"2011-035A","EPOCH":"2026-02-01T14:42:28.074816","MEAN_MOTION":1.0027114,"ECCENTRICITY":0.00034312,"INCLINATION":0.9763,"RA_OF_ASC_NODE":84.7043,"ARG_OF_PERICENTER":235.9455,"MEAN_ANOMALY":288.757,"EPHEMERIS_TYPE":0,"CLASSIFICATION_TYPE":"U","NORAD_CAT_ID":37748,"ELEMENT_SET_NO":999,"REV_AT_EPOCH":5323,"BSTAR":0,"MEAN_MOTION_DOT":-1.12e-6,"MEAN_MOTION_DDOT":0}]
